ADRAS-J                 
1 58992U 24034A   24117.46360431  .00007591  00000+0  71477-3 0  9998
2 58992  98.2094  88.1756 0043244 216.9902 142.8333 14.93442104 10140
